GPS BIII-8  (PRN 21)    
1 64202U 25116A   26087.81390277 -.00000080  00000+0  00000+0 0  9996
2 64202  55.1842  34.3646 0008966 330.8454  26.7176  2.00551421  6255
